start=new Date('2021-08-28T00:00:00.000Z').valueOf();
sats=[{"OBJECT_TYPE":"PAYLOAD","SITE":"AFETR","COUNTRY_CODE":"US","APOAPSIS":"547.893","INCLINATION":"53.0552","EPOCH":"2021-08-27T18:08:37.046112","MEAN_ELEMENT_THEORY":"SGP4","OBJECT_ID":"2020-055BB","TIME_SYSTEM":"UTC","GP_ID":"183555432","TLE_LINE1":"1 46076U 20055BB  21239.75598433  .00001439  00000-0  11549-3 0  9996","MEAN_ANOMALY":"258.9498","ELEMENT_SET_NO":"999","PERIOD":"95.592","SEMIMAJOR_AXIS":"6925.350","ARG_OF_PERICENTER":"101.1601","MEAN_MOTION_DOT":"0.00001439","RA_OF_ASC_NODE":"325.9179","REF_FRAME":"TEME","LAUNCH_DATE":"2020-08-07","FILE":"3104038","RCS_SIZE":"LARGE","PERIAPSIS":"546.537","EPHEMERIS_TYPE":"0","CENTER_NAME":"EARTH","TLE_LINE2":"2 46076  53.0552 325.9179 0000979 101.1601 258.9498 15.06399397 59850","BSTAR":"0.00011549000000","ECCENTRICITY":"0.00009790","DECAY_DATE":null,"MEAN_MOTION_DDOT":"0.0000000000000","REV_AT_EPOCH":"5985","NORAD_CAT_ID":"46076","MEAN_MOTION":"15.06399397","CLASSIFICATION_TYPE":"U","OBJECT_NAME":"STARLINK-1552"},{"MEAN_MOTION_DOT":"-0.00000680","REF_FRAME":"TEME","RA_OF_ASC_NODE":"325.9979","MEAN_ANOMALY":"249.1811","ELEMENT_SET_NO":"999","PERIOD":"95.592","SEMIMAJOR_AXIS":"6925.361","ARG_OF_PERICENTER":"110.9304","INCLINATION":"53.0546","APOAPSIS":"548.037","EPOCH":"2021-08-27T17:42:05.341248","GP_ID":"183554199","TLE_LINE1":"1 46077U 20055BC  21239.73756182 -.00000680  00000-0 -26788-4 0  9993","MEAN_ELEMENT_THEORY":"SGP4","TIME_SYSTEM":"UTC","OBJECT_ID":"2020-055BC","OBJECT_TYPE":"PAYLOAD","SITE":"AFETR","COUNTRY_CODE":"US","CLASSIFICATION_TYPE":"U","OBJECT_NAME":"STARLINK-1559","NORAD_CAT_ID":"46077","MEAN_MOTION":"15.06395900","REV_AT_EPOCH":"5982","ECCENTRICITY":"0.00011710","MEAN_MOTION_DDOT":"0.0000000000000","DECAY_DATE":null,"LAUNCH_DATE":"2020-08-07","TLE_LINE2":"2 46077  53.0546 325.9979 0001171 110.9304 249.1811 15.06395900 59829","BSTAR":"-0.00002678800000","PERIAPSIS":"546.415","FILE":"3104038","RCS_SIZE":"LARGE","EPHEMERIS_TYPE":"0","CENTER_NAME":"EARTH"},{"PERIOD":"95.592","ARG_OF_PERICENTER":"112.3663","SEMIMAJOR_AXIS":"6925.355","ELEMENT_SET_NO":"999","MEAN_ANOMALY":"247.7453","MEAN_MOTION_DOT":"0.00001408","RA_OF_ASC_NODE":"326.0942","REF_FRAME":"TEME","COUNTRY_CODE":"US","OBJECT_TYPE":"PAYLOAD","SITE":"AFETR","MEAN_ELEMENT_THEORY":"SGP4","OBJECT_ID":"2020-055BD","TIME_SYSTEM":"UTC","GP_ID":"183555464","TLE_LINE1":"1 46078U 20055BD  21239.71545457  .00001408  00000-0  11337-3 0  9993","APOAPSIS":"548.052","INCLINATION":"53.0558","EPOCH":"2021-08-27T17:10:15.274848","REV_AT_EPOCH":"5983","NORAD_CAT_ID":"46078","MEAN_MOTION":"15.06397965","OBJECT_NAME":"STARLINK-1563","CLASSIFICATION_TYPE":"U","RCS_SIZE":"LARGE","FILE":"3104038","PERIAPSIS":"546.387","EPHEMERIS_TYPE":"0","CENTER_NAME":"EARTH","TLE_LINE2":"2 46078  53.0558 326.0942 0001202 112.3663 247.7453 15.06397965 59834","BSTAR":"0.00011337000000","LAUNCH_DATE":"2020-08-07","DECAY_DATE":null,"MEAN_MOTION_DDOT":"0.0000000000000","ECCENTRICITY":"0.00012020"},{"REV_AT_EPOCH":"5983","MEAN_MOTION":"15.06406160","NORAD_CAT_ID":"46079","CLASSIFICATION_TYPE":"U","OBJECT_NAME":"STARLINK-1566","LAUNCH_DATE":"2020-08-07","FILE":"3103885","RCS_SIZE":"LARGE","PERIAPSIS":"546.513","CENTER_NAME":"EARTH","EPHEMERIS_TYPE":"0","BSTAR":"0.00008418800000","TLE_LINE2":"2 46079  53.0553 327.0230 0000984 110.7043 249.4052 15.06406160 59833","ECCENTRICITY":"0.00009840","DECAY_DATE":null,"MEAN_MOTION_DDOT":"0.0000000000000","ELEMENT_SET_NO":"999","MEAN_ANOMALY":"249.4052","ARG_OF_PERICENTER":"110.7043","SEMIMAJOR_AXIS":"6925.330","PERIOD":"95.592","RA_OF_ASC_NODE":"327.0230","REF_FRAME":"TEME","MEAN_MOTION_DOT":"0.00000973","SITE":"AFETR","OBJECT_TYPE":"PAYLOAD","COUNTRY_CODE":"US","EPOCH":"2021-08-27T12:12:59.573376","INCLINATION":"53.0553","APOAPSIS":"547.876","TIME_SYSTEM":"UTC","OBJECT_ID":"2020-055BE","MEAN_ELEMENT_THEORY":"SGP4","TLE_LINE1":"1 46079U 20055BE  21239.50902284  .00000973  00000-0  84188-4 0  9997","GP_ID":"183528934"},{"RCS_SIZE":"LARGE","FILE":"3103885","CENTER_NAME":"EARTH","PERIAPSIS":"546.610","EPHEMERIS_TYPE":"0","BSTAR":"-0.00000374460000","TLE_LINE2":"2 46080  53.0563 326.9086 0000870 100.9089 259.1998 15.06400379 59819","LAUNCH_DATE":"2020-08-07","DECAY_DATE":null,"MEAN_MOTION_DDOT":"0.0000000000000","ECCENTRICITY":"0.00008700","REV_AT_EPOCH":"5981","MEAN_MOTION":"15.06400379","NORAD_CAT_ID":"46080","OBJECT_NAME":"STARLINK-1568","CLASSIFICATION_TYPE":"U","COUNTRY_CODE":"US","SITE":"AFETR","OBJECT_TYPE":"PAYLOAD","OBJECT_ID":"2020-055BF","TIME_SYSTEM":"UTC","MEAN_ELEMENT_THEORY":"SGP4","TLE_LINE1":"1 46080U 20055BF  21239.53482341 -.00000337  00000-0 -37446-5 0  9991","GP_ID":"183528684","EPOCH":"2021-08-27T12:50:08.742624","APOAPSIS":"547.815","INCLINATION":"53.0563","SEMIMAJOR_AXIS":"6925.347","ARG_OF_PERICENTER":"100.9089","PERIOD":"95.592","MEAN_ANOMALY":"259.1998","ELEMENT_SET_NO":"999","RA_OF_ASC_NODE":"326.9086","REF_FRAME":"TEME","MEAN_MOTION_DOT":"-0.00000337"},{"REV_AT_EPOCH":"5985","MEAN_MOTION":"15.06402231","NORAD_CAT_ID":"46081","CLASSIFICATION_TYPE":"U","OBJECT_NAME":"STARLINK-1571","LAUNCH_DATE":"2020-08-07","FILE":"3104038","RCS_SIZE":"LARGE","EPHEMERIS_TYPE":"0","PERIAPSIS":"546.540","CENTER_NAME":"EARTH","BSTAR":"0.00003387500000","TLE_LINE2":"2 46081  53.0571 326.1495 0000963 105.3728 254.7368 15.06402231 59852","ECCENTRICITY":"0.00009630","DECAY_DATE":null,"MEAN_MOTION_DDOT":"0.0000000000000","MEAN_ANOMALY":"254.7368","ELEMENT_SET_NO":"999","SEMIMAJOR_AXIS":"6925.342","ARG_OF_PERICENTER":"105.3728","PERIOD":"95.592","RA_OF_ASC_NODE":"326.1495","REF_FRAME":"TEME","MEAN_MOTION_DOT":"0.00000223","SITE":"AFETR","OBJECT_TYPE":"PAYLOAD","COUNTRY_CODE":"US","EPOCH":"2021-08-27T16:49:00.005664","APOAPSIS":"547.874","INCLINATION":"53.0571","TIME_SYSTEM":"UTC","OBJECT_ID":"2020-055BG","MEAN_ELEMENT_THEORY":"SGP4","TLE_LINE1":"1 46081U 20055BG  21239.70069451  .00000223  00000-0  33875-4 0  9997","GP_ID":"183554714"},{"LAUNCH_DATE":"2020-08-07","RCS_SIZE":"LARGE","FILE":"3104038","CENTER_NAME":"EARTH","PERIAPSIS":"546.553","EPHEMERIS_TYPE":"0","TLE_LINE2":"2 46082  53.0545 326.0655 0000954 103.5984 256.5112 15.06399898 59867","BSTAR":"0.00000297110000","ECCENTRICITY":"0.00009540","DECAY_DATE":null,"MEAN_MOTION_DDOT":"0.0000000000000","REV_AT_EPOCH":"5986","NORAD_CAT_ID":"46082","MEAN_MOTION":"15.06399898","CLASSIFICATION_TYPE":"U","OBJECT_NAME":"STARLINK-1578","OBJECT_TYPE":"PAYLOAD","SITE":"AFETR","COUNTRY_CODE":"US","APOAPSIS":"547.875","INCLINATION":"53.0545","EPOCH":"2021-08-27T17:20:50.421984","MEAN_ELEMENT_THEORY":"SGP4","OBJECT_ID":"2020-055BH","TIME_SYSTEM":"UTC","GP_ID":"183554950","TLE_LINE1":"1 46082U 20055BH  21239.72280581 -.00000237  00000-0  29711-5 0  9990","ELEMENT_SET_NO":"999","MEAN_ANOMALY":"256.5112","PERIOD":"95.592","SEMIMAJOR_AXIS":"6925.349","ARG_OF_PERICENTER":"103.5984","MEAN_MOTION_DOT":"-0.00000237","RA_OF_ASC_NODE":"326.0655","REF_FRAME":"TEME"},{"LAUNCH_DATE":"2020-08-07","TLE_LINE2":"2 46083  53.0540 325.8957 0000960  95.2624 264.8475 15.06403555 59860","BSTAR":"0.00019989000000","RCS_SIZE":"LARGE","FILE":"3104038","PERIAPSIS":"546.538","CENTER_NAME":"EARTH","EPHEMERIS_TYPE":"0","ECCENTRICITY":"0.00009600","MEAN_MOTION_DDOT":"0.0000000000000","DECAY_DATE":null,"NORAD_CAT_ID":"46083","MEAN_MOTION":"15.06403555","REV_AT_EPOCH":"5986","CLASSIFICATION_TYPE":"U","OBJECT_NAME":"STARLINK-1579","OBJECT_TYPE":"PAYLOAD","SITE":"AFETR","COUNTRY_CODE":"US","APOAPSIS":"547.867","INCLINATION":"53.0540","EPOCH":"2021-08-27T18:13:55.517376","GP_ID":"183555715","TLE_LINE1":"1 46083U 20055BJ  21239.75967034  .00002698  00000-0  19989-3 0  9995","MEAN_ELEMENT_THEORY":"SGP4","TIME_SYSTEM":"UTC","OBJECT_ID":"2020-055BJ","MEAN_ANOMALY":"264.8475","ELEMENT_SET_NO":"999","PERIOD":"95.592","SEMIMAJOR_AXIS":"6925.338","ARG_OF_PERICENTER":"95.2624","MEAN_MOTION_DOT":"0.00002698","RA_OF_ASC_NODE":"325.8957","REF_FRAME":"TEME"},{"REV_AT_EPOCH":"5689","NORAD_CAT_ID":"46117","MEAN_MOTION":"15.06377985","OBJECT_NAME":"STARLINK-1585","CLASSIFICATION_TYPE":"U","PERIAPSIS":"546.089","FILE":"3104038","RCS_SIZE":"LARGE","CENTER_NAME":"EARTH","EPHEMERIS_TYPE":"0","TLE_LINE2":"2 46117  53.0553 166.3437 0001721  54.2679 305.8470 15.06377985 56892","BSTAR":"-0.00003821800000","LAUNCH_DATE":"2020-08-18","DECAY_DATE":null,"MEAN_MOTION_DDOT":"0.0000000000000","ECCENTRICITY":"0.00017210","PERIOD":"95.594","SEMIMAJOR_AXIS":"6925.416","ARG_OF_PERICENTER":"54.2679","ELEMENT_SET_NO":"999","MEAN_ANOMALY":"305.8470","MEAN_MOTION_DOT":"-0.00000850","RA_OF_ASC_NODE":"166.3437","REF_FRAME":"TEME","COUNTRY_CODE":"US","OBJECT_TYPE":"PAYLOAD","SITE":"AFETR","MEAN_ELEMENT_THEORY":"SGP4","TIME_SYSTEM":"UTC","OBJECT_ID":"2020-057A","GP_ID":"183556472","TLE_LINE1":"1 46117U 20057A   21239.66017307 -.00000850  00000-0 -38218-4 0  9991","APOAPSIS":"548.473","INCLINATION":"53.0553","EPOCH":"2021-08-27T15:50:38.953248"},{"GP_ID":"183529442","TLE_LINE1":"1 46118U 20057B   21239.27128303 -.00000501  00000-0 -14739-4 0  9993","MEAN_ELEMENT_THEORY":"SGP4","TIME_SYSTEM":"UTC","OBJECT_ID":"2020-057B","APOAPSIS":"548.273","INCLINATION":"53.0549","EPOCH":"2021-08-27T06:30:38.853792","COUNTRY_CODE":"US","OBJECT_TYPE":"PAYLOAD","SITE":"AFETR","MEAN_MOTION_DOT":"-0.00000501","RA_OF_ASC_NODE":"188.0938","REF_FRAME":"TEME","PERIOD":"95.592","SEMIMAJOR_AXIS":"6925.337","ARG_OF_PERICENTER":"55.1935","ELEMENT_SET_NO":"999","MEAN_ANOMALY":"304.9200","MEAN_MOTION_DDOT":"0.0000000000000","DECAY_DATE":null,"ECCENTRICITY":"0.00015470","TLE_LINE2":"2 46118  53.0549 188.0938 0001547  55.1935 304.9200 15.06403908 57837","BSTAR":"-0.00001473900000","RCS_SIZE":"LARGE","FILE":"3103885","PERIAPSIS":"546.130","EPHEMERIS_TYPE":"0","CENTER_NAME":"EARTH","LAUNCH_DATE":"2020-08-18","OBJECT_NAME":"STARLINK-1588","CLASSIFICATION_TYPE":"U","NORAD_CAT_ID":"46118","MEAN_MOTION":"15.06403908","REV_AT_EPOCH":"5783"}];
